start=new Date('2022-06-18T00:00:00.000Z').valueOf();
sats=[{"MEAN_ANOMALY":"128.2416","REV_AT_EPOCH":"130","PERIAPSIS":"348.522","MEAN_MOTION_DOT":"0.00082228","MEAN_MOTION":"15.73190320","EPHEMERIS_TYPE":"0","DECAY_DATE":null,"SEMIMAJOR_AXIS":"6727.923","REF_FRAME":"TEME","OBJECT_ID":"2022-049BB","CENTER_NAME":"EARTH","LAUNCH_DATE":"2022-05-06","FILE":"3497002","INCLINATION":"53.2179","RA_OF_ASC_NODE":"64.9604","EPOCH":"2022-06-16T02:00:01.000224","COUNTRY_CODE":"US","ELEMENT_SET_NO":"999","PERIOD":"91.534","TLE_LINE2":"2 52500  53.2179  64.9604 0001881  30.1715 128.2416 15.73190320  1304","ECCENTRICITY":"0.00018810","ARG_OF_PERICENTER":"30.1715","TIME_SYSTEM":"UTC","TLE_LINE1":"1 52500U 22049BB  22167.08334491  .00082228  00000-0  58480-3 0  9999","NORAD_CAT_ID":"52500","RCS_SIZE":"LARGE","BSTAR":"0.00058480000000","APOAPSIS":"351.053","SITE":"AFETR","GP_ID":"206291554","OBJECT_NAME":"STARLINK-3866","CLASSIFICATION_TYPE":"U","OBJECT_TYPE":"PAYLOAD","MEAN_ELEMENT_THEORY":"SGP4","MEAN_MOTION_DDOT":"0.0000000000000"},{"RA_OF_ASC_NODE":"64.9662","EPOCH":"2022-06-16T02:00:01.000224","COUNTRY_CODE":"US","ELEMENT_SET_NO":"999","PERIOD":"91.533","TLE_LINE2":"2 52501  53.2186  64.9662 0001882  34.4555 122.0670 15.73197219  1305","ARG_OF_PERICENTER":"34.4555","ECCENTRICITY":"0.00018820","TIME_SYSTEM":"UTC","LAUNCH_DATE":"2022-05-06","FILE":"3497002","INCLINATION":"53.2186","OBJECT_ID":"2022-049BC","CENTER_NAME":"EARTH","REV_AT_EPOCH":"130","MEAN_ANOMALY":"122.0670","PERIAPSIS":"348.502","MEAN_MOTION":"15.73197219","MEAN_MOTION_DOT":"0.00084395","EPHEMERIS_TYPE":"0","DECAY_DATE":null,"SEMIMAJOR_AXIS":"6727.903","REF_FRAME":"TEME","OBJECT_TYPE":"PAYLOAD","CLASSIFICATION_TYPE":"U","MEAN_ELEMENT_THEORY":"SGP4","MEAN_MOTION_DDOT":"0.0000000000000","APOAPSIS":"351.034","SITE":"AFETR","GP_ID":"206291820","OBJECT_NAME":"STARLINK-3907","TLE_LINE1":"1 52501U 22049BC  22167.08334491  .00084395  00000-0  59977-3 0  9999","NORAD_CAT_ID":"52501","RCS_SIZE":"LARGE","BSTAR":"0.00059977000000"},{"INCLINATION":"53.2173","FILE":"3497002","LAUNCH_DATE":"2022-05-06","ELEMENT_SET_NO":"999","COUNTRY_CODE":"US","EPOCH":"2022-06-16T02:00:01.000224","RA_OF_ASC_NODE":"64.9560","TIME_SYSTEM":"UTC","TLE_LINE2":"2 52502  53.2173  64.9560 0001614  49.8322 109.8572 15.73184367  1308","PERIOD":"91.534","ECCENTRICITY":"0.00016140","ARG_OF_PERICENTER":"49.8322","EPHEMERIS_TYPE":"0","DECAY_DATE":null,"PERIAPSIS":"348.719","MEAN_MOTION_DOT":"0.00089038","MEAN_MOTION":"15.73184367","REV_AT_EPOCH":"130","MEAN_ANOMALY":"109.8572","REF_FRAME":"TEME","SEMIMAJOR_AXIS":"6727.940","CENTER_NAME":"EARTH","OBJECT_ID":"2022-049BD","GP_ID":"206291109","SITE":"AFETR","APOAPSIS":"350.891","OBJECT_NAME":"STARLINK-3912","OBJECT_TYPE":"PAYLOAD","CLASSIFICATION_TYPE":"U","MEAN_MOTION_DDOT":"0.0000000000000","MEAN_ELEMENT_THEORY":"SGP4","NORAD_CAT_ID":"52502","TLE_LINE1":"1 52502U 22049BD  22167.08334491  .00089038  00000-0  63253-3 0  9991","BSTAR":"0.00063253000000","RCS_SIZE":"MEDIUM"},{"CENTER_NAME":"EARTH","OBJECT_ID":"2022-049BE","DECAY_DATE":null,"EPHEMERIS_TYPE":"0","PERIAPSIS":"348.446","MEAN_MOTION_DOT":"0.00038945","MEAN_MOTION":"15.73222376","MEAN_ANOMALY":"117.0445","REV_AT_EPOCH":"130","REF_FRAME":"TEME","SEMIMAJOR_AXIS":"6727.831","ELEMENT_SET_NO":"999","EPOCH":"2022-06-16T02:00:01.000224","COUNTRY_CODE":"US","RA_OF_ASC_NODE":"64.9572","TIME_SYSTEM":"UTC","TLE_LINE2":"2 52503  53.2173  64.9572 0001858  41.9509 117.0445 15.73222376  1305","ARG_OF_PERICENTER":"41.9509","PERIOD":"91.532","ECCENTRICITY":"0.00018580","INCLINATION":"53.2173","FILE":"3497002","LAUNCH_DATE":"2022-05-06","NORAD_CAT_ID":"52503","TLE_LINE1":"1 52503U 22049BE  22167.08334491  .00038945  00000-0  28034-3 0  9991","BSTAR":"0.00028034000000","RCS_SIZE":"MEDIUM","CLASSIFICATION_TYPE":"U","OBJECT_TYPE":"PAYLOAD","MEAN_MOTION_DDOT":"0.0000000000000","MEAN_ELEMENT_THEORY":"SGP4","GP_ID":"206291311","SITE":"AFETR","APOAPSIS":"350.946","OBJECT_NAME":"STARLINK-3861"},{"OBJECT_TYPE":"PAYLOAD","CLASSIFICATION_TYPE":"U","MEAN_ELEMENT_THEORY":"SGP4","MEAN_MOTION_DDOT":"0.0000000000000","APOAPSIS":"417.809","SITE":"AFWTR","GP_ID":"206291212","OBJECT_NAME":"STARLINK-3951","TLE_LINE1":"1 52533U 22051A   22167.08334491 -.00029465  00000-0 -51233-3 0  9993","NORAD_CAT_ID":"52533","RCS_SIZE":"LARGE","BSTAR":"-0.00051233000000","RA_OF_ASC_NODE":"130.3206","COUNTRY_CODE":"US","EPOCH":"2022-06-16T02:00:01.000224","ELEMENT_SET_NO":"999","ECCENTRICITY":"0.00012850","TLE_LINE2":"2 52533  53.2165 130.3206 0001285  53.3633  25.8618 15.49928986  1301","PERIOD":"92.907","ARG_OF_PERICENTER":"53.3633","TIME_SYSTEM":"UTC","LAUNCH_DATE":"2022-05-13","FILE":"3497002","INCLINATION":"53.2165","OBJECT_ID":"2022-051A","CENTER_NAME":"EARTH","REV_AT_EPOCH":"130","MEAN_ANOMALY":"25.8618","MEAN_MOTION_DOT":"-0.00029465","PERIAPSIS":"416.062","MEAN_MOTION":"15.49928986","DECAY_DATE":null,"EPHEMERIS_TYPE":"0","SEMIMAJOR_AXIS":"6795.071","REF_FRAME":"TEME"},{"LAUNCH_DATE":"2022-05-13","INCLINATION":"53.2167","FILE":"3497002","TIME_SYSTEM":"UTC","TLE_LINE2":"2 52534  53.2167 130.2969 0001579  57.9646  19.5501 15.50086427  1307","PERIOD":"92.898","ECCENTRICITY":"0.00015790","ARG_OF_PERICENTER":"57.9646","RA_OF_ASC_NODE":"130.2969","ELEMENT_SET_NO":"999","COUNTRY_CODE":"US","EPOCH":"2022-06-16T02:00:01.000224","SEMIMAJOR_AXIS":"6794.610","REF_FRAME":"TEME","MEAN_ANOMALY":"19.5501","REV_AT_EPOCH":"130","EPHEMERIS_TYPE":"0","DECAY_DATE":null,"PERIAPSIS":"415.403","MEAN_MOTION_DOT":"-0.00447909","MEAN_MOTION":"15.50086427","OBJECT_ID":"2022-051B","CENTER_NAME":"EARTH","OBJECT_NAME":"STARLINK-3952","APOAPSIS":"417.548","GP_ID":"206291758","SITE":"AFWTR","MEAN_MOTION_DDOT":"0.0000000000000","MEAN_ELEMENT_THEORY":"SGP4","OBJECT_TYPE":"PAYLOAD","CLASSIFICATION_TYPE":"U","RCS_SIZE":"LARGE","BSTAR":"-0.00828390000000","NORAD_CAT_ID":"52534","TLE_LINE1":"1 52534U 22051B   22167.08334491 -.00447909  00000-0 -82839-2 0  9996"},{"GP_ID":"206291458","SITE":"AFWTR","APOAPSIS":"417.546","OBJECT_NAME":"STARLINK-3958","CLASSIFICATION_TYPE":"U","OBJECT_TYPE":"PAYLOAD","MEAN_MOTION_DDOT":"0.0000000000000","MEAN_ELEMENT_THEORY":"SGP4","NORAD_CAT_ID":"52535","TLE_LINE1":"1 52535U 22051C   22167.08334491 -.00007295  00000-0 -12050-3 0  9996","BSTAR":"-0.00012050000000","RCS_SIZE":"LARGE","INCLINATION":"53.2166","FILE":"3497002","LAUNCH_DATE":"2022-05-13","ELEMENT_SET_NO":"999","EPOCH":"2022-06-16T02:00:01.000224","COUNTRY_CODE":"US","RA_OF_ASC_NODE":"130.3103","TIME_SYSTEM":"UTC","TLE_LINE2":"2 52535  53.2166 130.3103 0000913  51.7856  26.4905 15.49932302  1309","PERIOD":"92.907","ARG_OF_PERICENTER":"51.7856","ECCENTRICITY":"0.00009130","DECAY_DATE":null,"EPHEMERIS_TYPE":"0","MEAN_MOTION_DOT":"-0.00007295","PERIAPSIS":"416.306","MEAN_MOTION":"15.49932302","REV_AT_EPOCH":"130","MEAN_ANOMALY":"26.4905","REF_FRAME":"TEME","SEMIMAJOR_AXIS":"6795.061","CENTER_NAME":"EARTH","OBJECT_ID":"2022-051C"},{"CLASSIFICATION_TYPE":"U","OBJECT_TYPE":"PAYLOAD","MEAN_MOTION_DDOT":"0.0000000000000","MEAN_ELEMENT_THEORY":"SGP4","GP_ID":"206291661","SITE":"AFWTR","APOAPSIS":"418.025","OBJECT_NAME":"STARLINK-3964","NORAD_CAT_ID":"52536","TLE_LINE1":"1 52536U 22051D   22167.08334491 -.00045131  00000-0 -79081-3 0  9995","BSTAR":"-0.00079081000000","RCS_SIZE":"LARGE","ELEMENT_SET_NO":"999","EPOCH":"2022-06-16T02:00:01.000224","COUNTRY_CODE":"US","RA_OF_ASC_NODE":"130.3231","TIME_SYSTEM":"UTC","PERIOD":"92.908","TLE_LINE2":"2 52536  53.2168 130.3231 0001560  68.6978  11.3957 15.49918823  1307","ECCENTRICITY":"0.00015600","ARG_OF_PERICENTER":"68.6978","INCLINATION":"53.2168","FILE":"3497002","LAUNCH_DATE":"2022-05-13","CENTER_NAME":"EARTH","OBJECT_ID":"2022-051D","EPHEMERIS_TYPE":"0","DECAY_DATE":null,"PERIAPSIS":"415.905","MEAN_MOTION_DOT":"-0.00045131","MEAN_MOTION":"15.49918823","MEAN_ANOMALY":"11.3957","REV_AT_EPOCH":"130","REF_FRAME":"TEME","SEMIMAJOR_AXIS":"6795.100"},{"MEAN_MOTION_DDOT":"0.0000000000000","MEAN_ELEMENT_THEORY":"SGP4","CLASSIFICATION_TYPE":"U","OBJECT_TYPE":"PAYLOAD","OBJECT_NAME":"STARLINK-3897","GP_ID":"206291558","SITE":"AFWTR","APOAPSIS":"417.807","BSTAR":"-0.00175240000000","RCS_SIZE":"LARGE","NORAD_CAT_ID":"52537","TLE_LINE1":"1 52537U 22051E   22167.08334491 -.00098888  00000-0 -17524-2 0  9996","TIME_SYSTEM":"UTC","TLE_LINE2":"2 52537  53.2176 130.3358 0001369  59.3803  21.5390 15.49949262  1303","ARG_OF_PERICENTER":"59.3803","PERIOD":"92.906","ECCENTRICITY":"0.00013690","ELEMENT_SET_NO":"999","EPOCH":"2022-06-16T02:00:01.000224","COUNTRY_CODE":"US","RA_OF_ASC_NODE":"130.3358","INCLINATION":"53.2176","FILE":"3497002","LAUNCH_DATE":"2022-05-13","CENTER_NAME":"EARTH","OBJECT_ID":"2022-051E","REF_FRAME":"TEME","SEMIMAJOR_AXIS":"6795.011","DECAY_DATE":null,"EPHEMERIS_TYPE":"0","PERIAPSIS":"415.946","MEAN_MOTION":"15.49949262","MEAN_MOTION_DOT":"-0.00098888","MEAN_ANOMALY":"21.5390","REV_AT_EPOCH":"130"},{"CENTER_NAME":"EARTH","OBJECT_ID":"2022-051F","REF_FRAME":"TEME","SEMIMAJOR_AXIS":"6795.046","MEAN_MOTION_DOT":"-0.00022284","PERIAPSIS":"416.026","MEAN_MOTION":"15.49937431","DECAY_DATE":null,"EPHEMERIS_TYPE":"0","MEAN_ANOMALY":"19.5629","REV_AT_EPOCH":"130","PERIOD":"92.907","TLE_LINE2":"2 52538  53.2162 130.3607 0001303  63.0386  19.5629 15.49937431  1309","ARG_OF_PERICENTER":"63.0386","ECCENTRICITY":"0.00013030","TIME_SYSTEM":"UTC","COUNTRY_CODE":"US","EPOCH":"2022-06-16T02:00:01.000224","ELEMENT_SET_NO":"999","RA_OF_ASC_NODE":"130.3607","FILE":"3497002","INCLINATION":"53.2162","LAUNCH_DATE":"2022-05-13","BSTAR":"-0.00038506000000","RCS_SIZE":"LARGE","TLE_LINE1":"1 52538U 22051F   22167.08334491 -.00022284  00000-0 -38506-3 0  9998","NORAD_CAT_ID":"52538","MEAN_ELEMENT_THEORY":"SGP4","MEAN_MOTION_DDOT":"0.0000000000000","OBJECT_TYPE":"PAYLOAD","CLASSIFICATION_TYPE":"U","OBJECT_NAME":"STARLINK-3933","SITE":"AFWTR","GP_ID":"206291824","APOAPSIS":"417.796"}];
